0 FENGYUN 1C DEB
1 29871U 99025FR  13281.51773301  .00000839  00000-0  35309-3 0  8402
2 29871 098.9319 013.4552 0074841 109.8657 316.7138 14.26964162350501
0 FENGYUN 1C DEB
1 29871U 99025FR  13282.85963215  .00000793  00000-0  33499-3 0  8413
2 29871 098.9319 014.8247 0074765 106.0372 010.0928 14.26970145350694
0 FENGYUN 1C DEB
1 29871U 99025FR  13284.05357758  .00001011  00000-0  42172-3 0  8429
2 29871 098.9321 016.0433 0074741 102.6166 023.4641 14.26972169350862
0 FENGYUN 1C DEB
1 29871U 99025FR  13286.86061134  .00000995  00000-0  41541-3 0  8441
2 29871 098.9322 018.9086 0074646 094.5935 043.3923 14.26977179351260
0 FENGYUN 1C DEB
1 29871U 99025FR  13288.17752390  .00001408  00000-0  58041-3 0  8452
2 29871 098.9323 020.2532 0074620 090.8113 328.5010 14.26982719351454
0 FENGYUN 1C DEB
1 29871U 99025FR  13289.51096189  .00001019  00000-0  42491-3 0  8469
2 29871 098.9322 021.6145 0074537 086.9988 338.5062 14.26986487351646
0 FENGYUN 1C DEB
1 29871U 99025FR  13290.78350822  .00001134  00000-0  47071-3 0  8475
2 29871 098.9320 022.9137 0074450 083.3294 035.7533 14.26989294351822
0 FENGYUN 1C DEB
1 29871U 99025FR  13291.84080435  .00001150  00000-0  47717-3 0  8489
2 29871 098.9318 023.9931 0074392 080.2871 067.2377 14.26991066351976
0 FENGYUN 1C DEB
1 29871U 99025FR  13293.09751454  .00001248  00000-0  51643-3 0  8496
2 29871 098.9317 025.2761 0074335 076.6774 043.1449 14.26993856352152
0 FENGYUN 1C DEB
1 29871U 99025FR  13294.20757488  .00001185  00000-0  49120-3 0  8502
2 29871 098.9316 026.4093 0074291 073.4800 345.7076 14.26997608352312
0 FENGYUN 1C DEB
1 29871U 99025FR  13295.25941829  .00001273  00000-0  52628-3 0  8518
2 29871 098.9316 027.4830 0074229 070.4461 349.2183 14.27000064352469
